      'REF_FRAME': 'TEME',
      'TIME_SYSTEM': 'UTC',
      'MEAN_ELEMENT_THEORY': 'SGP4',
      'EPOCH': '2020-06-21 08:00:01.999872',
      'MEAN_MOTION': 15.05568596,
      'ECCENTRICITY': 0.0001252,
      'INCLINATION': 53.001,
      'RA_OF_ASC_NODE': 337.1233,
      'ARG_OF_PERICENTER': 111.2101,
      'MEAN_ANOMALY': 260.5349,
      'EPHEMERIS_TYPE': 0,
      'CLASSIFICATION_TYPE': 'U',
      'NORAD_CAT_ID': 44935,
      'ELEMENT_SET_NO': 999,
      'REV_AT_EPOCH': 2553,
      'BSTAR': 0.00302,
      'MEAN_MOTION_DOT': 0.00043913,
      'MEAN_MOTION_DDOT': 0,
      'SEMIMAJOR_AXIS': 6927.897,
      'PERIOD': 95.644,
      'APOAPSIS': 550.63,
      'PERIAPSIS': 548.895,
      'OBJECT_TYPE': 'PAYLOAD',
      'RCS_SIZE': 'LARGE',
      'COUNTRY_CODE': 'US',
      'LAUNCH_DATE': '2020-01-07',
      'SITE': 'AFETR',
      'DECAY_DATE': null,
      'DECAYED': 0,
      'FILE': 2770046,
      'GP_ID': 156071281,
      'TLE_LINE0': '0 STARLINK-1072',
      'TLE_LINE1':
          '1 44935U 20001X   20173.33335648  .00043913  00000-0  30152-2 0  9999',
      'TLE_LINE2':
          '2 44935  53.0008 337.1233 0001252 111.2101 260.5349 15.05568596 25536'
    },
    'version': 'v1.0',
    'launch': '5eb87d3cffd86e000604b380',
    'id': '5eed7715096e5900069856fc'
  },
  {
    'spaceTrack': {
      'CCSDS_OMM_VERS': '2.0',
      'COMMENT': 'GENERATED VIA SPACE-TRACK.ORG API',
      'CREATION_DATE': '2020-06-21 03:47:55',
      'ORIGINATOR': '18 SPCS',
      'OBJECT_NAME': 'STARLINK-1174',
      'OBJECT_ID': '2020-006AH',
      'CENTER_NAME': 'EARTH',
      'REF_FRAME': 'TEME',
      'TIME_SYSTEM': 'UTC',
      'MEAN_ELEMENT_THEORY': 'SGP4',
      'EPOCH': '2020-06-20 22:00:01.999584',
      'MEAN_MOTION': 15.05593364,
      'ECCENTRICITY': 0.0001412,
      'INCLINATION': 53.001,
      'RA_OF_ASC_NODE': 278.9902,
      'ARG_OF_PERICENTER': 94.9467,
      'MEAN_ANOMALY': 255.4593,
      'EPHEMERIS_TYPE': 0,
      'CLASSIFICATION_TYPE': 'U',
      'NORAD_CAT_ID': 45075,
      'ELEMENT_SET_NO': 999,
      'REV_AT_EPOCH': 175,
      'BSTAR': -0.00191,
      'MEAN_MOTION_DOT': -0.00028037,
      'MEAN_MOTION_DDOT': 0,
      'SEMIMAJOR_AXIS': 6927.821,
      'PERIOD': 95.643,
      'APOAPSIS': 550.665,
      'PERIAPSIS': 548.708,
      'OBJECT_TYPE': 'PAYLOAD',
      'RCS_SIZE': 'LARGE',
      'COUNTRY_CODE': 'US',
      'LAUNCH_DATE': '2020-01-29',
      'SITE': 'AFETR',
      'DECAY_DATE': null,
      'DECAYED': 0,
      'FILE': 2769847,
      'GP_ID': 156065515,
      'TLE_LINE0': '0 STARLINK-1174',
      'TLE_LINE1':
          '1 45075U 20006AH  20172.91668981 -.00028037 +00000-0 -19120-2 0  9996',
      'TLE_LINE2':
          '2 45075 053.0007 278.9902 0001412 094.9467 255.4593 15.05593364001759'
    },
    'version': 'v1.0',
    'launch': '5eb87d3fffd86e000604b382',
    'id': '5eed7715096e5900069856fd'
  },
  {
    'spaceTrack': {
      'CCSDS_OMM_VERS': '2.0',
      'COMMENT': 'GENERATED VIA SPACE-TRACK.ORG API',
      'CREATION_DATE': '2020-05-29 07:06:09',
      'ORIGINATOR': '18 SPCS',
      'OBJECT_NAME': 'STARLINK-1087',
      'OBJECT_ID': '2020-001BD',
      'CENTER_NAME': 'EARTH',
      'REF_FRAME': 'TEME',
      'TIME_SYSTEM': 'UTC',
      'MEAN_ELEMENT_THEORY': 'SGP4',
      'EPOCH': '2020-05-28 22:41:27.804480',
      'MEAN_MOTION': 16.43727123,
      'ECCENTRICITY': 0.0008979,
      'INCLINATION': 52.993,
      'RA_OF_ASC_NODE': 43.5355,
      'ARG_OF_PERICENTER': 226.1131,
      'MEAN_ANOMALY': 134.4631,
      'EPHEMERIS_TYPE': 0,
      'CLASSIFICATION_TYPE': 'U',
      'NORAD_CAT_ID': 44965,
      'ELEMENT_SET_NO': 999,
      'REV_AT_EPOCH': 2327,
      'BSTAR': 0.00121,
      'MEAN_MOTION_DOT': 0.34395127,
      'MEAN_MOTION_DDOT': 0.00001,
      'SEMIMAJOR_AXIS': 6534.043,
      'PERIOD': 87.605,
      'APOAPSIS': 161.775,
      'PERIAPSIS': 150.041,
      'OBJECT_TYPE': 'PAYLOAD',
      'RCS_SIZE': 'LARGE',
      'COUNTRY_CODE': 'US',
      'LAUNCH_DATE': '2020-01-07',
      'SITE': 'AFETR',
      'DECAY_DATE': '2020-05-29',
      'DECAYED': 1,
      'FILE': 2755878,
      'GP_ID': 154713658,
      'TLE_LINE0': '0 STARLINK-1087',
      'TLE_LINE1':
          '1 44965U 20001BD  20149.94546070  .34395127  12367-4  12102-2 0  9997',
      'TLE_LINE2':
          '2 44965  52.9928  43.5355 0008979 226.1131 134.4631 16.43727123 23271'
    },
    'version': 'v1.0',
    'launch': '5eb87d3cffd86e000604b380',
    'id': '5eed7715096e5900069856fe'
  },
  {
    'spaceTrack': {
      'CCSDS_OMM_VERS': '2.0',
      'COMMENT': 'GENERATED VIA SPACE-TRACK.ORG API',
      'CREATION_DATE': '2020-06-21 10:06:09',
      'ORIGINATOR': '18 SPCS',
      'OBJECT_NAME': 'STARLINK-1130',
      'OBJECT_ID': '2020-001U',
      'CENTER_NAME': 'EARTH',
      'REF_FRAME': 'TEME',
      'TIME_SYSTEM': 'UTC',
      'MEAN_ELEMENT_THEORY': 'SGP4',
      'EPOCH': '2020-06-21 08:00:01.999872',
      'MEAN_MOTION': 15.05579395,
      'ECCENTRICITY': 0.0001576,
      'INCLINATION': 53.001,
      'RA_OF_ASC_NODE': 357.1231,
      'ARG_OF_PERICENTER': 110.0525,
      'MEAN_ANOMALY': 331.4032,
      'EPHEMERIS_TYPE': 0,
      'CLASSIFICATION_TYPE': 'U',
      'NORAD_CAT_ID': 44932,
      'ELEMENT_SET_NO': 999,
      'REV_AT_EPOCH': 2648,
      'BSTAR': 0.00244,
      'MEAN_MOTION_DOT': 0.00035379,
      'MEAN_MOTION_DDOT': 0,
      'SEMIMAJOR_AXIS': 6927.864,
      'PERIOD': 95.644,
      'APOAPSIS': 550.821,
      'PERIAPSIS': 548.637,
      'OBJECT_TYPE': 'PAYLOAD',
      'RCS_SIZE': 'LARGE',
      'COUNTRY_CODE': 'US',
      'LAUNCH_DATE': '2020-01-07',
      'SITE': 'AFETR',
      'DECAY_DATE': null,
      'DECAYED': 0,
      'FILE': 2770054,
      'GP_ID': 156071301,
      'TLE_LINE0': '0 STARLINK-1130',
      'TLE_LINE1':
          '1 44932U 20001U   20173.33335648  .00035379  00000-0  24352-2 0  9998',
      'TLE_LINE2':
          '2 44932  53.0010 357.1231 0001576 110.0525 331.4032 15.05579395 26483'
    },
    'version': 'v1.0',
    'launch': '5eb87d3cffd86e000604b380',
    'id': '5eed7715096e5900069856ff'
  },
  {
    'spaceTrack': {
      'CCSDS_OMM_VERS': '2.0',
      'COMMENT': 'GENERATED VIA SPACE-TRACK.ORG API',
      'CREATION_DATE': '2020-06-21 10:06:09',
      'ORIGINATOR': '18 SPCS',
      'OBJECT_NAME': 'STARLINK-1077',
      'OBJECT_ID': '2020-001AY',
      'CENTER_NAME': 'EARTH',
      'REF_FRAME': 'TEME',
      'TIME_SYSTEM': 'UTC',
      'MEAN_ELEMENT_THEORY': 'SGP4',
      'EPOCH': '2020-06-21 08:00:01.999872',
      'MEAN_MOTION': 15.05572517,
      'ECCENTRICITY': 0.0001399,
      'INCLINATION': 53.001,
      'RA_OF_ASC_NODE': 317.1228,
      'ARG_OF_PERICENTER': 105.2879,
      'MEAN_ANOMALY': 160.4751,
      'EPHEMERIS_TYPE': 0,
      'CLASSIFICATION_TYPE': 'U',
      'NORAD_CAT_ID': 44960,
      'ELEMENT_SET_NO': 999,
      'REV_AT_EPOCH': 2580,
      'BSTAR': 0.00229,
      'MEAN_MOTION_DOT': 0.00033284,
      'MEAN_MOTION_DDOT': 0,
      'SEMIMAJOR_AXIS': 6927.885,
      'PERIOD': 95.644,
      'APOAPSIS': 550.72,
      'PERIAPSIS': 548.781,
      'OBJECT_TYPE': 'PAYLOAD',
      'RCS_SIZE': 'LARGE',
      'COUNTRY_CODE': 'US',
      'LAUNCH_DATE': '2020-01-07',
      'SITE': 'AFETR',
      'DECAY_DATE': null,
      'DECAYED': 0,
      'FILE': 2770054,
      'GP_ID': 156071303,
      'TLE_LINE0': '0 STARLINK-1077',
      'TLE_LINE1':
          '1 44960U 20001AY  20173.33335648  .00033284  00000-0  22932-2 0  9994',
      'TLE_LINE2':
          '2 44960  53.0008 317.1228 0001399 105.2879 160.4751 15.05572517 25806'
    },
    'version': 'v1.0',
    'launch': '5eb87d3cffd86e000604b380',
    'id': '5eed7715096e590006985700'
  },
  {
    'spaceTrack': {
      'CCSDS_OMM_VERS': '2.0',
      'COMMENT': 'GENERATED VIA SPACE-TRACK.ORG API',
      'CREATION_DATE': '2020-06-21 03:47:55',
      'ORIGINATOR': '18 SPCS',
      'OBJECT_NAME': 'STARLINK-1133',
      'OBJECT_ID': '2020-006W',
      'CENTER_NAME': 'EARTH',
      'REF_FRAME': 'TEME',
      'TIME_SYSTEM': 'UTC',
      'MEAN_ELEMENT_THEORY': 'SGP4',
      'EPOCH': '2020-06-20 22:00:01.999584',
      'MEAN_MOTION': 15.05600137,
      'ECCENTRICITY': 0.0001421,
      'INCLINATION': 53.001,
      'RA_OF_ASC_NODE': 278.9939,
      'ARG_OF_PERICENTER': 99.2184,
      'MEAN_ANOMALY': 287.2089,
      'EPHEMERIS_TYPE': 0,
      'CLASSIFICATION_TYPE': 'U',
      'NORAD_CAT_ID': 45064,
      'ELEMENT_SET_NO': 999,
      'REV_AT_EPOCH': 176,
      'BSTAR': -0.00222,
      'MEAN_MOTION_DOT': -0.00032539,
      'MEAN_MOTION_DDOT': 0,
      'SEMIMAJOR_AXIS': 6927.801,
      'PERIOD': 95.642,
      'APOAPSIS': 550.65,
      'PERIAPSIS': 548.681,
      'OBJECT_TYPE': 'PAYLOAD',
      'RCS_SIZE': 'LARGE',
      'COUNTRY_CODE': 'US',
      'LAUNCH_DATE': '2020-01-29',
      'SITE': 'AFETR',
      'DECAY_DATE': null,
      'DECAYED': 0,
      'FILE': 2769847,
      'GP_ID': 156064861,
      'TLE_LINE0': '0 STARLINK-1133',
      'TLE_LINE1':
          '1 45064U 20006W   20172.91668981 -.00032539 +00000-0 -22231-2 0  9993',
      'TLE_LINE2':
          '2 45064 053.0014 278.9939 0001421 099.2184 287.2089 15.05600137001760'
    },
    'version': 'v1.0',
    'launch': '5eb87d3fffd86e000604b382',
    'id': '5eed7715096e590006985701'
  },
  {
    'spaceTrack': {
      'CCSDS_OMM_VERS': '2.0',
      'COMMENT': 'GENERATED VIA SPACE-TRACK.ORG API',
      'CREATION_DATE': '2020-06-21 03:47:55',
      'ORIGINATOR': '18 SPCS',
      'OBJECT_NAME': 'STARLINK-1162',
      'OBJECT_ID': '2020-006Q',
      'CENTER_NAME': 'EARTH',
      'REF_FRAME': 'TEME',
      'TIME_SYSTEM': 'UTC',
      'MEAN_ELEMENT_THEORY': 'SGP4',
      'EPOCH': '2020-06-20 22:00:01.999584',
      'MEAN_MOTION': 15.05573834,
      'ECCENTRICITY': 0.0001251,
      'INCLINATION': 53,
      'RA_OF_ASC_NODE': 298.9916,
      'ARG_OF_PERICENTER': 116.0241,
      'MEAN_ANOMALY': 322.2317,
      'EPHEMERIS_TYPE': 0,
      'CLASSIFICATION_TYPE': 'U',
      'NORAD_CAT_ID': 45058,
      'ELEMENT_SET_NO': 999,
      'REV_AT_EPOCH': 176,
      'BSTAR': -0.00054,
      'MEAN_MOTION_DOT': -0.00008103,
      'MEAN_MOTION_DDOT': 0,
